GLOBALSTAR M024         
1 25883U 99043A   25279.57028926  .00000022  00000+0  30923-2 0  9997
2 25883  51.9985 129.3021 0000560 323.7968  76.8518 11.10169475127237
GLOBALSTAR M027         
1 25884U 99043B   25279.19274733 -.00000099  00000+0 -13350-2 0  9996
2 25884  52.0197 211.2813 0021011 169.1103 191.0148 11.04372797153506
GLOBALSTAR M054         
1 25885U 99043C   25279.37173672 -.00000074  00000+0 -62432-4 0  9997
2 25885  52.0156 319.5266 0005215   8.2053   4.7527 11.39220752131723
GLOBALSTAR M053         
1 25886U 99043D   25279.51678006 -.00000067  00000+0  46028-4 0  9999
2 25886  51.9972 272.4497 0003325 276.1008 232.8699 11.27667478132000
GLOBALSTAR M058         
1 25907U 99049A   25279.38839860 -.00000067  00000+0  23001-3 0  9996
2 25907  51.9922 172.2377 0002537 111.9266 248.1839 11.93202885554812
GLOBALSTAR M050         
1 25908U 99049B   25279.41461238 -.00000144  00000+0 -63622-3 0  9991
2 25908  51.9975 171.5340 0008295 254.6297 277.6010 12.07458373161621
GLOBALSTAR M033         
1 25909U 99049C   25279.50091371 -.00000148  00000+0 -54124-3 0  9990
2 25909  51.9935  35.4361 0014565 132.7842 227.4232 12.20296857549337
GLOBALSTAR M055         
1 25910U 99049D   25279.47567108 -.00000088  00000+0  55855-4 0  9999
2 25910  52.0039  40.8369 0006835   9.1497 350.9478 12.29433250181973
